[{"OBJECT_NAME":"LIME","OBJECT_ID":"2025-009AR","EPOCH":"2026-03-09T17:44:15.459648","MEAN_MOTION":15.28703313,"ECCENTRICITY":0.00016347,"INCLINATION":97.3985,"RA_OF_ASC_NODE":151.4831,"ARG_OF_PERICENTER":35.9029,"MEAN_ANOMALY":324.232,"EPHEMERIS_TYPE":0,"CLASSIFICATION_TYPE":"U","NORAD_CAT_ID":62648,"ELEMENT_SET_NO":999,"REV_AT_EPOCH":6376,"BSTAR":0.00047722827,"MEAN_MOTION_DOT":0.00013254,"MEAN_MOTION_DDOT":0},{"OBJECT_NAME":"STARLINK-35565","OBJECT_ID":"2025-278N","EPOCH":"2026-03-09T03:36:43.619040","MEAN_MOTION":15.27563931,"ECCENTRICITY":0.00010759,"INCLINATION":42.9962,"RA_OF_ASC_NODE":117.6695,"ARG_OF_PERICENTER":244.795,"MEAN_ANOMALY":115.279,"EPHEMERIS_TYPE":0,"CLASSIFICATION_TYPE":"U","NORAD_CAT_ID":66803,"ELEMENT_SET_NO":999,"REV_AT_EPOCH":1512,"BSTAR":0.0009348438,"MEAN_MOTION_DOT":0.00025539,"MEAN_MOTION_DDOT":0}]
