LIME                    
1 62648U 25009AR  26068.73906781  .00013254  00000+0  47723-3 0  9995
2 62648  97.3985 151.4831 0001635  35.9029 324.2320 15.28703313 63766
STARLINK-35565          
1 66803U 25278N   26068.15050485  .00025539  00000+0  93484-3 0  9991
2 66803  42.9962 117.6695 0001075 244.7950 115.2790 15.27563931 15122
